NORAD_CAT_ID,OBJECT_NAME,OBJECT_TYPE,EPOCH,MEAN_MOTION,ECCENTRICITY,INCLINATION,RA_OF_ASC_NODE,ARG_OF_PERICENTER,MEAN_ANOMALY,BSTAR,MEAN_MOTION_DOT,MEAN_MOTION_DDOT,TLE_LINE0,TLE_LINE1,TLE_LINE2,SEMIMAJOR_AXIS,PERIOD,APOGEE,PERIGEE,DECAYED
52369.0,STARLINK-3841,PAYLOAD,2024-01-01 20:24:24,15.08826863,0.0001106,53.2163,170.7585,89.7883,270.3235,0.00033732,5.083e-05,0.0,0 STARLINK-3841,1 52369U 22045AQ  24001.85028263  .00005083  00000-0  33732-3 0  9996,2 52369  53.2163 170.7585 0001106  89.7883 270.3235 15.08826863 95475,6917.921,95.438,540.551,539.02,0.0
52369.0,STARLINK-3841,PAYLOAD,2024-01-02 17:04:24,15.08851015,0.0001304,53.217,166.8919,79.8671,280.2468,0.00016016,2.263e-05,0.0,0 STARLINK-3841,1 52369U 22045AQ  24002.71139237  .00002263  00000-0  16016-3 0  9999,2 52369  53.2170 166.8919 0001304  79.8671 280.2468 15.08851015 95605,6917.847,95.437,540.614,538.81,0.0
52369.0,STARLINK-3841,PAYLOAD,2024-01-02 20:15:10,15.08849094,0.000129,53.2165,166.2986,79.1564,280.9574,0.00014404,2.006e-05,0.0,0 STARLINK-3841,1 52369U 22045AQ  24002.84387333  .00002006  00000-0  14404-3 0  9999,2 52369  53.2165 166.2986 0001290  79.1564 280.9574 15.08849094 95626,6917.853,95.437,540.61,538.825,0.0
52369.0,STARLINK-3841,PAYLOAD,2024-01-03 10:33:38,15.08851074,0.0001292,53.2161,163.623,78.3996,281.7141,6.2937e-05,7.14e-06,0.0,0 STARLINK-3841,1 52369U 22045AQ  24003.44003114  .00000714  00000-0  62937-4 0  9997,2 52369  53.2161 163.6230 0001292  78.3996 281.7141 15.08851074 95717,6917.847,95.437,540.605,538.818,0.0
52369.0,STARLINK-3841,PAYLOAD,2024-01-03 16:55:10,15.08853907,0.0001258,53.2158,162.4342,80.1084,280.0051,8.1653e-05,1.012e-05,0.0,0 STARLINK-3841,1 52369U 22045AQ  24003.70498640  .00001012  00000-0  81653-4 0  9996,2 52369  53.2158 162.4342 0001258  80.1084 280.0051 15.08853907 95758,6917.838,95.437,540.573,538.833,0.0
52369.0,STARLINK-3841,PAYLOAD,2024-01-04 13:35:11,15.08847096,0.0001202,53.2154,158.5689,86.3034,273.8096,1.1966e-06,-2.69e-06,0.0,0 STARLINK-3841,1 52369U 22045AQ  24004.56610621 -.00000269  00000-0  11966-5 0  9991,2 52369  53.2154 158.5689 0001202  86.3034 273.8096 15.08847096 95881,6917.859,95.437,540.555,538.892,0.0
52369.0,STARLINK-3841,PAYLOAD,2024-01-04 16:45:57,15.0884707,0.0001192,53.2156,157.9735,90.5081,269.6048,-8.7375e-08,-2.89e-06,0.0,0 STARLINK-3841,1 52369U 22045AQ  24004.69858516 -.00000289  00000-0 -87375-7 0  9994,2 52369  53.2156 157.9735 0001192  90.5081 269.6048 15.08847070 95900,6917.859,95.437,540.548,538.899,0.0
52369.0,STARLINK-3841,PAYLOAD,2024-01-05 13:25:58,15.08838986,0.0001252,53.2158,154.1082,79.0277,281.0856,-4.8533e-05,-1.06e-05,0.0,0 STARLINK-3841,1 52369U 22045AQ  24005.55971054 -.00001060  00000-0 -48533-4 0  9991,2 52369  53.2158 154.1082 0001252  79.0277 281.0856 15.08838986 96038,6917.883,95.438,540.615,538.882,0.0
52369.0,STARLINK-3841,PAYLOAD,2024-01-05 15:01:22,15.08839212,0.0001272,53.2159,153.8108,78.4333,281.6802,-4.8092e-05,-1.053e-05,0.0,0 STARLINK-3841,1 52369U 22045AQ  24005.62595030 -.00001053  00000-0 -48092-4 0  9997,2 52369  53.2159 153.8108 0001272  78.4333 281.6802 15.08839212 96043,6917.883,95.438,540.628,538.868,0.0
52369.0,STARLINK-3841,PAYLOAD,2024-01-06 10:05:59,15.0883674,0.0001279,53.2161,150.2408,91.6538,268.4601,4.2424e-05,3.87e-06,0.0,0 STARLINK-3841,1 52369U 22045AQ  24006.42082853  .00000387  00000-0  42424-4 0  9990,2 52369  53.2161 150.2408 0001279  91.6538 268.4601 15.08836740 96167,6917.89,95.438,540.64,538.871,0.0
52369.0,STARLINK-3841,PAYLOAD,2024-01-06 16:27:31,15.0884064,0.0001309,53.2163,149.0515,87.6807,272.4335,7.3784e-05,8.87e-06,0.0,0 STARLINK-3841,1 52369U 22045AQ  24006.68578577  .00000887  00000-0  73784-4 0  9999,2 52369  53.2163 149.0515 0001309  87.6807 272.4335 15.08840640 96200,6917.878,95.438,540.649,538.838,0.0
52369.0,STARLINK-3841,PAYLOAD,2024-01-07 14:42:56,15.088361,0.0001333,53.2165,144.8888,83.6515,276.4629,6.3101e-05,7.16e-06,0.0,0 STARLINK-3841,1 52369U 22045AQ  24007.61315201  .00000716  00000-0  63101-4 0  9999,2 52369  53.2165 144.8888 0001333  83.6515 276.4629 15.08836100 96348,6917.892,95.438,540.679,538.835,0.0
52369.0,STARLINK-3841,PAYLOAD,2024-01-07 17:53:42,15.08838203,0.0001349,53.2165,144.294,84.0034,276.1112,7.8712e-05,9.65e-06,0.0,0 STARLINK-3841,1 52369U 22045AQ  24007.74563053  .00000965  00000-0  78712-4 0  9993,2 52369  53.2165 144.2940 0001349  84.0034 276.1112 15.08838203 96361,6917.886,95.438,540.684,538.818,0.0
52369.0,STARLINK-3841,PAYLOAD,2024-01-08 08:12:11,15.08835148,0.0001333,53.2161,141.6186,86.5377,273.5767,1.4507e-06,-2.65e-06,0.0,0 STARLINK-3841,1 52369U 22045AQ  24008.34179620 -.00000265  00000-0  14507-5 0  9990,2 52369  53.2161 141.6186 0001333  86.5377 273.5767 15.08835148 96452,6917.895,95.438,540.682,538.838,0.0
52369.0,STARLINK-3841,PAYLOAD,2024-01-08 14:33:43,15.08832632,0.0001419,53.2163,140.4299,91.9244,268.1911,0.00015614,2.197e-05,0.0,0 STARLINK-3841,1 52369U 22045AQ  24008.60675370  .00002197  00000-0  15614-3 0  9995,2 52369  53.2163 140.4299 0001419  91.9244 268.1911 15.08832632 96494,6917.903,95.438,540.75,538.786,0.0
52369.0,STARLINK-3841,PAYLOAD,2024-01-08 16:09:06,15.08841719,0.0001365,53.2162,140.1324,78.8668,281.2477,6.0564e-05,6.76e-06,0.0,0 STARLINK-3841,1 52369U 22045AQ  24008.67299109  .00000676  00000-0  60564-4 0  9999,2 52369  53.2162 140.1324 0001365  78.8668 281.2477 15.08841719 96504,6917.875,95.437,540.684,538.796,0.0
52369.0,STARLINK-3841,PAYLOAD,2024-01-09 14:24:29,15.08847632,0.0001409,53.2164,135.9699,71.0881,289.0264,0.00011452,1.535e-05,0.0,0 STARLINK-3841,1 52369U 22045AQ  24009.60034646  .00001535  00000-0  11452-3 0  9992,2 52369  53.2164 135.9699 0001409  71.0881 289.0264 15.08847632 96649,6917.857,95.437,540.697,538.747,0.0
52369.0,STARLINK-3841,PAYLOAD,2024-01-09 15:59:52,15.08849103,0.000141,53.2164,135.6724,72.7953,287.3193,0.00012561,1.712e-05,0.0,0 STARLINK-3841,1 52369U 22045AQ  24009.66658504  .00001712  00000-0  12561-3 0  9992,2 52369  53.2164 135.6724 0001410  72.7953 287.3193 15.08849103 96653,6917.853,95.437,540.693,538.742,0.0
52369.0,STARLINK-3841,PAYLOAD,2024-01-10 07:53:45,15.08837879,0.0001339,53.2162,132.6985,82.9884,277.126,2.4311e-05,9.9e-07,0.0,0 STARLINK-3841,1 52369U 22045AQ  24010.32899458  .00000099  00000-0  24311-4 0  9996,2 52369  53.2162 132.6985 0001339  82.9884 277.1260 15.08837879 96753,6917.887,95.438,540.678,538.826,0.0
52369.0,STARLINK-3841,PAYLOAD,2024-01-11 12:30:41,15.08847372,0.000145,53.216,127.3453,71.1257,288.9892,2.7747e-05,1.54e-06,0.0,0 STARLINK-3841,1 52369U 22045AQ  24011.52130870  .00000154  00000-0  27747-4 0  9993,2 52369  53.2160 127.3453 0001450  71.1257 288.9892 15.08847372 96930,6917.858,95.437,540.726,538.72,0.0
52369.0,STARLINK-3841,PAYLOAD,2024-01-11 14:06:04,15.08850035,0.0001482,53.2161,127.048,69.4301,290.685,5.2744e-05,5.52e-06,0.0,0 STARLINK-3841,1 52369U 22045AQ  24011.58754649  .00000552  00000-0  52744-4 0  9992,2 52369  53.2161 127.0480 0001482  69.4301 290.6850 15.08850035 96948,6917.85,95.437,540.74,538.689,0.0
52369.0,STARLINK-3841,PAYLOAD,2024-01-11 17:16:49,15.08854491,0.0001316,53.2162,126.4521,90.4125,269.7018,0.00011239,1.502e-05,0.0,0 STARLINK-3841,1 52369U 22045AQ  24011.72002035  .00001502  00000-0  11239-3 0  9992,2 52369  53.2162 126.4521 0001316  90.4125 269.7018 15.08854491 96967,6917.836,95.437,540.611,538.791,0.0
52369.0,STARLINK-3841,PAYLOAD,2024-01-12 12:21:28,15.08840086,0.0001455,53.2169,122.8796,117.4214,242.6926,-7.3704e-06,-4.05e-06,0.0,0 STARLINK-3841,1 52369U 22045AQ  24012.51491202 -.00000405  00000-0 -73704-5 0  9998,2 52369  53.2169 122.8796 0001455 117.4214 242.6926 15.08840086 97088,6917.88,95.438,540.752,538.739,0.0
52369.0,STARLINK-3841,PAYLOAD,2024-01-12 13:56:51,15.08836516,0.0001376,53.2167,122.5871,74.3213,285.793,1.5133e-05,-4.7e-07,0.0,0 STARLINK-3841,1 52369U 22045AQ  24012.58115674 -.00000047  00000-0  15133-4 0  9993,2 52369  53.2167 122.5871 0001376  74.3213 285.7930 15.08836516 97096,6917.891,95.438,540.708,538.804,0.0
52369.0,STARLINK-3841,PAYLOAD,2024-01-13 12:12:15,15.08842935,0.0001307,53.217,118.4231,81.7867,278.3273,-2.0393e-05,-6.12e-06,0.0,0 STARLINK-3841,1 52369U 22045AQ  24013.50851590 -.00000612  00000-0 -20393-4 0  9993,2 52369  53.2170 118.4231 0001307  81.7867 278.3273 15.08842935 97231,6917.871,95.437,540.641,538.832,0.0
52369.0,STARLINK-3841,PAYLOAD,2024-01-14 05:41:30,15.08836125,0.0001335,53.2167,115.1529,80.7458,279.3685,0.00012513,1.704e-05,0.0,0 STARLINK-3841,1 52369U 22045AQ  24014.23715824  .00001704  00000-0  12513-3 0  9998,2 52369  53.2167 115.1529 0001335  80.7458 279.3685 15.08836125 97341,6917.892,95.438,540.681,538.834,0.0
52369.0,STARLINK-3841,PAYLOAD,2024-01-14 12:03:02,15.08841997,0.0001328,53.2165,113.964,83.0124,277.1019,0.00016693,2.37e-05,0.0,0 STARLINK-3841,1 52369U 22045AQ  24014.50211446  .00002370  00000-0  16693-3 0  9992,2 52369  53.2165 113.9640 0001328  83.0124 277.1019 15.08841997 97381,6917.874,95.437,540.658,538.821,0.0
52369.0,STARLINK-3841,PAYLOAD,2024-01-14 16:49:11,15.08849706,0.0001439,53.216,113.07,109.5681,250.5466,0.00022091,3.23e-05,0.0,0 STARLINK-3841,1 52369U 22045AQ  24014.70082741  .00003230  00000-0  22091-3 0  9993,2 52369  53.2160 113.0700 0001439 109.5681 250.5466 15.08849706 97410,6917.851,95.437,540.711,538.72,0.0
52369.0,STARLINK-3841,PAYLOAD,2024-01-15 11:53:49,15.08842934,0.0001348,53.2152,109.5037,92.6478,267.4668,8.5315e-05,1.07e-05,0.0,0 STARLINK-3841,1 52369U 22045AQ  24015.49571429  .00001070  00000-0  85315-4 0  9995,2 52369  53.2152 109.5037 0001348  92.6478 267.4668 15.08842934 97539,6917.871,95.437,540.669,538.804,0.0
52369.0,STARLINK-3841,PAYLOAD,2024-01-15 13:29:12,15.08847082,0.0001459,53.2156,109.2067,71.6329,288.4821,0.00014155,1.966e-05,0.0,0 STARLINK-3841,1 52369U 22045AQ  24015.56195308  .00001966  00000-0  14155-3 0  9998,2 52369  53.2156 109.2067 0001459  71.6329 288.4821 15.08847082 97542,6917.859,95.437,540.733,538.714,0.0
